{
  "type": "FeatureCollection",
  "features": [
    {
      "type": "Feature",
      "properties": {
        "norad_id": 66829,
        "name": "STARLINK-36084",
        "group": "last-30-days",
        "lat": 58.374452715856926,
        "lon": -151.83167114197352,
        "alt_km": 404.8561765464592,
        "timestamp": "2025-12-22T09:53:36.145005+00:00",
        "meta_object_name": "STARLINK-36084",
        "meta_object_id": "2025-280J",
        "meta_epoch": "2025-12-22T04:00:01.998720",
        "meta_mean_motion": 15.52638002,
        "meta_eccentricity": 0.0002933,
        "meta_inclination": 69.9998,
        "meta_ra_of_asc_node": 172.5796,
        "meta_arg_of_pericenter": 273.6899,
        "meta_mean_anomaly": 219.3716,
        "meta_ephemeris_type": 0,
        "meta_classification_type": "U",
        "meta_norad_cat_id": 66829,
        "meta_element_set_no": 999,
        "meta_rev_at_epoch": 425,
        "meta_bstar": -0.003477,
        "meta_mean_motion_dot": -0.00209428,
        "meta_mean_motion_ddot": 0,
        "tle_line1": "1 66829U 25280J   25356.16668980 -.00209428  00000+0 -34770-2 0  9992",
        "tle_line2": "2 66829  69.9998 172.5796 0002933 273.6899 219.3716 15.52638002  4253"
      },
      "geometry": {
        "type": "Point",
        "coordinates": [
          -151.83167114197352,
          58.374452715856926
        ]
      }
    },
    {
      "type": "Feature",
      "properties": {
        "norad_id": 66830,
        "name": "STARLINK-35881",
        "group": "last-30-days",
        "lat": 61.22788773847543,
        "lon": -146.54542146410444,
        "alt_km": 405.00246769371915,
        "timestamp": "2025-12-22T09:53:36.145016+00:00",
        "meta_object_name": "STARLINK-35881",
        "meta_object_id": "2025-280K",
        "meta_epoch": "2025-12-22T04:00:01.998720",
        "meta_mean_motion": 15.52535655,
        "meta_eccentricity": 0.0003349,
        "meta_inclination": 69.9998,
        "meta_ra_of_asc_node": 172.5743,
        "meta_arg_of_pericenter": 273.8567,
        "meta_mean_anomaly": 223.1673,
        "meta_ephemeris_type": 0,
        "meta_classification_type": "U",
        "meta_norad_cat_id": 66830,
        "meta_element_set_no": 999,
        "meta_rev_at_epoch": 441,
        "meta_bstar": -0.0019303,
        "meta_mean_motion_dot": -0.00117258,
        "meta_mean_motion_ddot": 0,
        "tle_line1": "1 66830U 25280K   25356.16668980 -.00117258  00000+0 -19303-2 0  9998",
        "tle_line2": "2 66830  69.9998 172.5743 0003349 273.8567 223.1673 15.52535655  4416"
      },
      "geometry": {
        "type": "Point",
        "coordinates": [
          -146.54542146410444,
          61.22788773847543
        ]
      }
    },
    {
      "type": "Feature",
      "properties": {
        "norad_id": 66831,
        "name": "STARLINK-35788",
        "group": "last-30-days",
        "lat": 62.52685767022855,
        "lon": -143.63142846193335,
        "alt_km": 404.82969570381374,
        "timestamp": "2025-12-22T09:53:36.145029+00:00",
        "meta_object_name": "STARLINK-35788",
        "meta_object_id": "2025-280L",
        "meta_epoch": "2025-12-22T04:00:01.998720",
        "meta_mean_motion": 15.52556688,
        "meta_eccentricity": 0.000343,
        "meta_inclination": 69.9996,
        "meta_ra_of_asc_node": 172.5738,
        "meta_arg_of_pericenter": 277.9118,
        "meta_mean_anomaly": 220.9815,
        "meta_ephemeris_type": 0,
        "meta_classification_type": "U",
        "meta_norad_cat_id": 66831,
        "meta_element_set_no": 999,
        "meta_rev_at_epoch": 441,
        "meta_bstar": -0.002128,
        "meta_mean_motion_dot": -0.00129159,
        "meta_mean_motion_ddot": 0,
        "tle_line1": "1 66831U 25280L   25356.16668980 -.00129159  00000+0 -21280-2 0  9999",
        "tle_line2": "2 66831  69.9996 172.5738 0003430 277.9118 220.9815 15.52556688  4419"
      },
      "geometry": {
        "type": "Point",
        "coordinates": [
          -143.63142846193335,
          62.52685767022855
        ]
      }
    },
    {
      "type": "Feature",
      "properties": {
        "norad_id": 66832,
        "name": "STARLINK-35768",
        "group": "last-30-days",
        "lat": 63.756893835595626,
        "lon": -140.47076982231624,
        "alt_km": 404.6941949218899,
        "timestamp": "2025-12-22T09:53:36.145040+00:00",
        "meta_object_name": "STARLINK-35768",
        "meta_object_id": "2025-280M",
        "meta_epoch": "2025-12-22T04:00:01.998720",
        "meta_mean_motion": 15.52548803,
        "meta_eccentricity": 0.0003277,
        "meta_inclination": 69.9999,
        "meta_ra_of_asc_node": 172.5708,
        "meta_arg_of_pericenter": 271.9952,
        "meta_mean_anomaly": 228.7844,
        "meta_ephemeris_type": 0,
        "meta_classification_type": "U",
        "meta_norad_cat_id": 66832,
        "meta_element_set_no": 999,
        "meta_rev_at_epoch": 441,
        "meta_bstar": -0.00152,
        "meta_mean_motion_dot": -0.00092699,
        "meta_mean_motion_ddot": 0,
        "tle_line1": "1 66832U 25280M   25356.16668980 -.00092699  00000+0 -15200-2 0  9993",
        "tle_line2": "2 66832  69.9999 172.5708 0003277 271.9952 228.7844 15.52548803  4417"
      },
      "geometry": {
        "type": "Point",
        "coordinates": [
          -140.47076982231624,
          63.756893835595626
        ]
      }
    },
    {
      "type": "Feature",
      "properties": {
        "norad_id": 66833,
        "name": "STARLINK-35858",
        "group": "last-30-days",
        "lat": 64.9482031580117,
        "lon": -136.90962318679732,
        "alt_km": 404.72053283319656,
        "timestamp": "2025-12-22T09:53:36.145050+00:00",
        "meta_object_name": "STARLINK-35858",
        "meta_object_id": "2025-280N",
        "meta_epoch": "2025-12-22T04:00:01.998720",
        "meta_mean_motion": 15.52559827,
        "meta_eccentricity": 0.0003451,
        "meta_inclination": 69.9997,
        "meta_ra_of_asc_node": 172.5689,
        "meta_arg_of_pericenter": 273.871,
        "meta_mean_anomaly": 228.8528,
        "meta_ephemeris_type": 0,
        "meta_classification_type": "U",
        "meta_norad_cat_id": 66833,
        "meta_element_set_no": 999,
        "meta_rev_at_epoch": 441,
        "meta_bstar": -0.002254,
        "meta_mean_motion_dot": -0.00136687,
        "meta_mean_motion_ddot": 0,
        "tle_line1": "1 66833U 25280N   25356.16668980 -.00136687  00000+0 -22540-2 0  9995",
        "tle_line2": "2 66833  69.9997 172.5689 0003451 273.8710 228.8528 15.52559827  4419"
      },
      "geometry": {
        "type": "Point",
        "coordinates": [
          -136.90962318679732,
          64.9482031580117
        ]
      }
    },
    {
      "type": "Feature",
      "properties": {
        "norad_id": 66834,
        "name": "STARLINK-35840",
        "group": "last-30-days",
        "lat": 66.03080641919718,
        "lon": -133.09499205502433,
        "alt_km": 404.72794183060705,
        "timestamp": "2025-12-22T09:53:36.145059+00:00",
        "meta_object_name": "STARLINK-35840",
        "meta_object_id": "2025-280P",
        "meta_epoch": "2025-12-22T04:00:01.998720",
        "meta_mean_motion": 15.52562564,
        "meta_eccentricity": 0.0003536,
        "meta_inclination": 69.9999,
        "meta_ra_of_asc_node": 172.5658,
        "meta_arg_of_pericenter": 270.4809,
        "meta_mean_anomaly": 234.1588,
        "meta_ephemeris_type": 0,
        "meta_classification_type": "U",
        "meta_norad_cat_id": 66834,
        "meta_element_set_no": 999,
        "meta_rev_at_epoch": 441,
        "meta_bstar": -0.0022942,
        "meta_mean_motion_dot": -0.00139097,
        "meta_mean_motion_ddot": 0,
        "tle_line1": "1 66834U 25280P   25356.16668980 -.00139097  00000+0 -22942-2 0  9990",
        "tle_line2": "2 66834  69.9999 172.5658 0003536 270.4809 234.1588 15.52562564  4412"
      },
      "geometry": {
        "type": "Point",
        "coordinates": [
          -133.09499205502433,
          66.03080641919718
        ]
      }
    },
    {
      "type": "Feature",
      "properties": {
        "norad_id": 66835,
        "name": "STARLINK-35890",
        "group": "last-30-days",
        "lat": 67.01263143033566,
        "lon": -128.9484984102012,
        "alt_km": 404.53729641596055,
        "timestamp": "2025-12-22T09:53:36.145069+00:00",
        "meta_object_name": "STARLINK-35890",
        "meta_object_id": "2025-280Q",
        "meta_epoch": "2025-12-22T04:00:01.998720",
        "meta_mean_motion": 15.52563397,
        "meta_eccentricity": 0.0003385,
        "meta_inclination": 69.9999,
        "meta_ra_of_asc_node": 172.5633,
        "meta_arg_of_pericenter": 272.8486,
        "meta_mean_anomaly": 233.7101,
        "meta_ephemeris_type": 0,
        "meta_classification_type": "U",
        "meta_norad_cat_id": 66835,
        "meta_element_set_no": 999,
        "meta_rev_at_epoch": 441,
        "meta_bstar": -0.0023792,
        "meta_mean_motion_dot": -0.00144149,
        "meta_mean_motion_ddot": 0,
        "tle_line1": "1 66835U 25280Q   25356.16668980 -.00144149  00000+0 -23792-2 0  9999",
        "tle_line2": "2 66835  69.9999 172.5633 0003385 272.8486 233.7101 15.52563397  4416"
      },
      "geometry": {
        "type": "Point",
        "coordinates": [
          -128.9484984102012,
          67.01263143033566
        ]
      }
    }
  ]
}